STARLINK-11535 [DTC]    
1 62595U 25008J   26068.53113135  .00114220  00000+0  88026-3 0  9992
2 62595  42.9992 126.7301 0001975 251.4188 108.6466 15.70871612 67119
ISS OBJECT XU           
1 66908U 98067XU  26068.19895314  .00161175  00000+0  13351-2 0  9996
2 66908  51.6248  68.1144 0004893  76.6698 283.4844 15.69191892 15108
